     2.100          NAVIGATION                              RINEX VERSION / TYPE
fic2rin                                 08/05/2015 00:22:45 PGM / RUN BY / DATE
                                                            END OF HEADER
 2 15  8  4 14  0  0.0  .582205131650D-03  .204636307899D-11  .000000000000D+00
     .210000000000D+02 -.765312500000D+02  .529986361774D-08 -.762743339413D+00
    -.393763184547D-05  .147042569006D-01  .672973692417D-05  .515360018349D+04
     .223200000000D+06  .121071934700D-06  .306458704947D+01  .318512320518D-06
     .941655701363D+00  .241125000000D+03 -.224408832018D+01 -.874607859499D-08
    -.478234206089D-09  .100000000000D+01  .185600000000D+04  .000000000000D+00
     .240000000000D+01  .000000000000D+00 -.204890966415D-07  .210000000000D+02
     .216006000000D+06  .400000000000D+01
 3 15  8  4 14  0  0.0  .135903246701D-04  .284217094304D-11  .000000000000D+00
     .730000000000D+02  .278750000000D+02  .414767276722D-08  .596150389085D+00
     .150315463543D-05  .748515129089D-03  .128541141748D-04  .515363941383D+04
     .223200000000D+06 -.689178705215D-07 -.213916002501D+01  .121071934700D-06
     .959192234344D+00  .130812500000D+03 -.253205704099D+01 -.781496838194D-08
     .170364239212D-09  .100000000000D+01  .185600000000D+04  .000000000000D+00
     .240000000000D+01  .000000000000D+00  .186264514923D-08  .730000000000D+02
     .216006000000D+06  .400000000000D+01
 4 15  8  4 14  0  0.0 -.712461769581D-05 -.341060513165D-11  .000000000000D+00
     .910000000000D+02 -.787812500000D+02  .510056960205D-08 -.150991452884D+01
    -.407733023167D-05  .116471931105D-01  .723078846931D-05  .515366170502D+04
     .223200000000D+06  .260770320892D-06  .307976612362D+01  .162050127983D-06
     .940735759958D+00  .227437500000D+03  .108107066641D+01 -.836641992354D-08
    -.473233997810D-09  .100000000000D+01  .185600000000D+04  .000000000000D+00
     .240000000000D+01  .000000000000D+00 -.651925802231D-08  .910000000000D+02
     .216006000000D+06  .400000000000D+01
 5 15  8  4 14  0  0.0 -.210308004171D-03  .420641299570D-11  .000000000000D+00
     .300000000000D+01  .721875000000D+01  .449447292712D-08  .173057789836D+01
     .517815351486D-06  .424543349072D-02  .130627304316D-04  .515362290382D+04
     .223200000000D+06 -.465661287308D-07 -.214711270517D+01 -.353902578354D-07
     .946390539593D+00  .121781250000D+03  .383810147142D+00 -.803747765035D-08
     .650027076237D-10  .100000000000D+01  .185600000000D+04  .000000000000D+00
     .240000000000D+01  .000000000000D+00 -.107102096081D-07  .300000000000D+01
     .216006000000D+06  .400000000000D+01
 7 15  8  4 14  0  0.0  .478172674775D-03  .204636307899D-11  .000000000000D+00
     .480000000000D+02 -.559687500000D+02  .451304512930D-08 -.192577498600D+01
    -.320002436638D-05  .878945156001D-02  .769086182117D-05  .515370252228D+04
     .223200000000D+06  .121071934700D-06 -.197984735087D-01 -.558793544769D-07
     .969858882081D+00  .234187500000D+03 -.272807707563D+01 -.813355308085D-08
    -.276797244002D-09  .100000000000D+01  .185600000000D+04  .000000000000D+00
     .240000000000D+01  .000000000000D+00 -.111758708954D-07  .480000000000D+02
     .216006000000D+06  .400000000000D+01
 8 15  8  4 14  0  0.0 -.584870576859D-06 -.795807864051D-12  .000000000000D+00
     .136000000000D+03  .299375000000D+02  .494413451448D-08  .135611340588D+01
     .148452818394D-05  .243183667772D-02  .398419797421D-05  .515874823189D+04
     .223200000000D+06  .763684511185D-07  .204610356315D+01 -.223517417908D-07
     .959851880198D+00  .296875000000D+03 -.841427149024D+00 -.842677958062D-08
     .150720563831D-09  .100000000000D+01  .185600000000D+04  .000000000000D+00
     .136500000000D+02  .630000000000D+02  .745058059692D-08  .136000000000D+03
     .216006000000D+06  .400000000000D+01
 9 15  8  4 14  0  0.0 -.101900659502D-04 -.113686837722D-11  .000000000000D+00
     .840000000000D+02  .625312500000D+02  .493199115151D-08 -.750048412813D-01
     .329129397869D-05  .429333536886D-03  .494346022606D-05  .515375664330D+04
     .223200000000D+06  .409781932831D-07 -.109641881584D+01 -.204890966415D-07
     .956592495791D+00  .278500000000D+03  .282931302555D+01 -.848821071090D-08
     .360729311538D-09  .100000000000D+01  .185600000000D+04  .000000000000D+00
     .240000000000D+01  .000000000000D+00  .931322574615D-09  .840000000000D+02
     .216006000000D+06  .400000000000D+01
11 15  8  4 14  0  0.0 -.595714896917D-03 -.238742359215D-11  .000000000000D+00
     .101000000000D+03 -.647500000000D+02  .630061958895D-08 -.187128570409D+01
    -.315159559250D-05  .161172143416D-01  .371970236301D-05  .515374315643D+04
     .223200000000D+06  .271946191788D-06  .274806100473D+01  .176951289177D-06
     .894044083039D+00  .268406250000D+03  .143122761052D+01 -.895251576536D-08
    -.314655963827D-09  .100000000000D+01  .185600000000D+04  .000000000000D+00
     .340000000000D+01  .000000000000D+00 -.121071934700D-07  .101000000000D+03
     .216006000000D+06  .400000000000D+01
12 15  8  4 14  0  0.0  .315918587148D-03  .341060513165D-11  .000000000000D+00
     .290000000000D+02  .205625000000D+02  .384194574675D-08 -.246207379475D+01
     .109709799290D-05  .554996496066D-02  .109765678644D-04  .515363886261D+04
     .223200000000D+06  .968575477600D-07  .104990325963D+01 -.147148966789D-06
     .989901512229D+00  .181562500000D+03  .643538795368D+00 -.767174813053D-08
     .211080220910D-09  .100000000000D+01  .185600000000D+04  .000000000000D+00
     .240000000000D+01  .000000000000D+00 -.125728547573D-07  .290000000000D+02
     .216006000000D+06  .400000000000D+01
13 15  8  4 14  0  0.0 -.138107687235D-03 -.329691829393D-11  .000000000000D+00
     .310000000000D+02  .465000000000D+02  .461162066394D-08 -.114057590234D+01
     .236928462982D-05  .483806687407D-02  .528618693352D-05  .515367892075D+04
     .223200000000D+06 -.856816768646D-07 -.980214949384D+00 -.689178705215D-07
     .973301298020D+00  .287406250000D+03  .209813584049D+01 -.834284751309D-08
     .286797660559D-09  .100000000000D+01  .185600000000D+04  .000000000000D+00
     .240000000000D+01  .000000000000D+00 -.111758708954D-07  .310000000000D+02
     .216006000000D+06  .400000000000D+01
14 15  8  4 14  0  0.0  .441367737949D-04 -.261479726760D-11  .000000000000D+00
     .410000000000D+02  .473437500000D+02  .471019619858D-08  .809233256522D+00
     .236183404922D-05  .842533819377D-02  .509805977345D-05  .515362986565D+04
     .223200000000D+06 -.124797224998D-06 -.101528950313D+01  .465661287308D-07
     .965774846365D+00  .281375000000D+03 -.196908832279D+01 -.846142388084D-08
     .166435504135D-09  .100000000000D+01  .185600000000D+04  .000000000000D+00
     .240000000000D+01  .000000000000D+00 -.931322574615D-08  .410000000000D+02
     .216006000000D+06  .400000000000D+01
15 15  8  4 14  0  0.0 -.264224596322D-03 -.204636307899D-11  .000000000000D+00
     .330000000000D+02  .568437500000D+02  .548237121991D-08  .141922804546D+00
     .309385359287D-05  .725451170001D-02  .543147325516D-05  .515368353271D+04
     .223200000000D+06  .577419996262D-07 -.114172311977D+01  .484287738800D-07
     .932418004210D+00  .258468750000D+03  .394311132573D+00 -.878250868388D-08
     .317156067966D-09  .100000000000D+01  .185600000000D+04  .000000000000D+00
     .240000000000D+01  .000000000000D+00 -.107102096081D-07  .330000000000D+02
     .216006000000D+06  .400000000000D+01
16 15  8  4 14  0  0.0 -.101148616523D-03  .420641299570D-11  .000000000000D+00
     .570000000000D+02  .391875000000D+02  .388516183259D-08  .179918622397D+01
     .220164656639D-05  .810763088521D-02  .112578272820D-04  .515360144997D+04
     .223200000000D+06 -.949949026108D-07  .106860175772D+01  .178813934326D-06
     .990429473512D+00  .180218750000D+03  .323547707735D+00 -.773960810003D-08
     .125005206969D-09  .100000000000D+01  .185600000000D+04  .000000000000D+00
     .240000000000D+01  .000000000000D+00 -.102445483208D-07  .570000000000D+02
     .216006000000D+06  .400000000000D+01
17 15  8  4 14  0  0.0 -.182839110494D-03 -.147792889038D-11  .000000000000D+00
     .108000000000D+03  .232500000000D+02  .474912639161D-08  .796925327344D+00
     .129640102386D-05  .102678056573D-01  .485777854919D-05  .515354809952D+04
     .223200000000D+06 -.894069671631D-07  .209462037520D+01  .521540641785D-07
     .973049860438D+00  .295687500000D+03 -.200951879810D+01 -.853678416275D-08
     .128576784311D-09  .100000000000D+01  .185600000000D+04  .000000000000D+00
     .340000000000D+01  .000000000000D+00 -.107102096081D-07  .108000000000D+03
     .216006000000D+06  .400000000000D+01
18 15  8  4 14  0  0.0  .422758515924D-03  .306954461848D-11  .000000000000D+00
     .500000000000D+02  .737500000000D+01  .490234705958D-08  .237431206644D+01
     .342726707458D-06  .163713998627D-01  .117924064398D-04  .515362631989D+04
     .223200000000D+06  .165775418282D-06 -.216177946540D+01 -.242143869400D-06
     .924991316253D+00  .129031250000D+03 -.194433349160D+01 -.798283251702D-08
     .162506769059D-09  .100000000000D+01  .185600000000D+04  .000000000000D+00
     .240000000000D+01  .000000000000D+00 -.111758708954D-07  .500000000000D+02
     .216006000000D+06  .400000000000D+01
19 15  8  4 14  0  0.0 -.517543870956D-03 -.909494701773D-12  .000000000000D+00
     .440000000000D+02  .158437500000D+02  .486948854803D-08 -.242652583340D-01
     .912696123123D-06  .116090564989D-01  .383146107197D-05  .515374709511D+04
     .223200000000D+06  .968575477600D-07  .214401377947D+01  .128522515297D-06
     .970149714584D+00  .306937500000D+03  .591773601517D+00 -.859000066515D-08
     .782175437889D-10  .100000000000D+01  .185600000000D+04  .000000000000D+00
     .240000000000D+01  .000000000000D+00 -.149011611938D-07  .440000000000D+02
     .216006000000D+06  .400000000000D+01
